#dP2020 10 28  0  0  0.00000000      97 __u+U IGS14 FIT  IAC
## 2129 259200.00000000   900.00000000 59150 0.0000000000000
+  122   C01C02C03C04C05C06C07C08C09C10C11C12C13C14C16C19C20
+        C21C22C23C24C25C26C27C28C29C30C32C33C34C35C36C37C38
+        C39C40C43C44C45C46C60E01E02E03E04E05E07E08E09E11E12
+        E13E14E15E18E19E21E24E25E26E27E30E31E33E36G01G02G03
+        G04G05G06G07G08G09G10G11G12G13G15G16G17G18G19G20G21
+        G22G23G24G25G26G27G28G29G30G31G32J01J02J03J07R01R02
+        R03R04R05R07R08R09R11R12R13R14R15R16R17R18R19R20R21
+        R22R23R24  0  0  0  0  0  0  0  0  0  0  0  0  0  0
++        13 13 13 13 13  8  8  8  8  7  8  7  8  7  8  7  7
++         7  7  7  7  7  7  7  7  7  7  7  8  8  7  7  7 11
++         9  9  9  9  8  8 20  5  4  4  4  4  4  4  4  4  4
++         4  4  4  4  4  4  4  4  4  4  4  4  4  4  3  3  3
++         3  3  3  3  3  3  3  3  3  3  3  3  3  3  3  3  3
++         3  3  4  3  3  3  3  3  3  3  3  9 10  8 13  6  5
++         5  5  5  5  5  5  5  5  6  5  5  6  5  5  6  6  5
++         6  5  5  0  0  0  0  0  0  0  0  0  0  0  0  0  0
%c M  cc GPS ccc cccc cccc cccc cccc ccccc ccccc ccccc ccccc
%c cc cc ccc ccc cccc cccc cccc cccc ccccc ccccc ccccc ccccc
%f  1.2500000  1.025000000  0.00000000000  0.000000000000000
%f  0.0000000  0.000000000  0.00000000000  0.000000000000000
%i    0    0    0    0      0      0      0      0         0
%i    0    0    0    0      0      0      0      0         0
/* INFORMATION & ANALYSIS CENTER (IAC)            FINAL DATA
/* S/V CLOCKS ARE ALIGNED TO GNSS TIME                      
/* G:C1WC2W R:C1PC2P E:C1XC5X C:C2IC6I J:C1CC2S             
/* PCV:IGS14_2118 OL/AL:FES2004  NONE     YN ORB:CoN CLK:CoN
*  2020 10 28  9 30  0.00000000
PC01 -34368.851722  24447.358410    202.516808   -748.416457
PC02   4455.469509  41920.851436     24.464377    780.197727
PC03 -14778.396994  39507.444967   -864.496054    808.184056
PC04 -39662.723014  14347.389977   -474.347308   -267.495924
PC05  21923.010406  36005.452888    263.210721    254.753095
PC06 -19740.869514  21440.218299  30727.625253     74.349014
PC07 -20512.332679  37134.327042   1641.100016   -139.566002
PC08  -5009.145000  28105.855278 -30794.096621   -645.850249
PC09  -2237.491617  24514.276456  34485.929632    901.137037
PC10  -9519.934943  39572.342725 -11615.828390   -154.242022
PC11  14856.215651  15544.623512 -17691.215786   -714.089865
PC12  -5518.061621  14390.337321 -23228.252555    579.157973
PC13   5676.607402  36007.361852 -20847.410867    716.960134
PC14   4212.878901  17526.263895  21333.332600    426.915217
PC16 -16782.819774  21872.535346  31923.996551   -601.384705
PC19 -12500.358578  -9872.347231 -22898.616946    597.785749
PC20   3587.950326 -21703.346137 -17150.568123   -872.456735
PC21 -18293.313823  21067.918519    899.554261   -707.537396
PC22 -21804.519789   7972.509764 -15508.976811   -780.666846
PC23  16942.094297   1464.072321 -22114.107690   -909.468021
PC24   4116.662188  27010.405410   5608.056577   -720.522154
PC25  15723.590266  19532.934591 -12224.976731   -806.841221
PC26  -8043.307119  18693.746538  19076.783424    883.466584
PC27  15803.369433 -10670.079768  20364.462094    423.194990
PC28  26997.226420   1581.530663   6861.491924   -152.862913
PC29 -22840.317234 -12024.167373  10608.112596    303.449940
PC30  -4763.083473 -16474.604861  22011.162186    395.896005
PC32  18150.620257 -21175.883142   -854.787479   -896.369308
PC33  12488.288587   9934.564845  22888.760376   -821.702290
PC34   5415.941718  16554.200629 -21811.061329   -821.946399
PC35 -27083.814625   -801.870932  -6619.305147   -586.745132
PC36 -15186.747805 -20104.048471  12029.454241   -859.061684
PC37   8903.163865 -17921.059007 -19433.920209   -887.461146
PC38  -2748.151954  32091.330634 -27142.857396    108.747433
PC39 -11328.199950  23575.356131  33047.954944     24.437867
PC40 -16769.880138  37426.514545 -10095.313760     95.308013
PC43  22510.467310  12388.008685 -10910.626512   -436.510794
PC44 -15617.438262  11216.782861 -20218.351934   -145.870190
PC45 -16843.110353  -1427.142977  22218.451729    267.631509
PC46  -4738.131831 -27071.829861  -4937.534351    571.672790
PC60   7265.909377  41487.383062  -1913.025746 999999.999999
PE01 -11405.808480  24905.701648  11220.162129   -970.741768
PE02  11337.341629 -24993.278763 -11100.749020    172.218491
PE03  19427.650538 -17853.218859 -13411.648657   -358.685647
PE04    483.985125  17812.507444  23633.671768   -636.200178
PE05  28242.947369  -7417.028054   4835.638963   -334.167241
PE07 -20491.160370  -7255.974637 -20097.345764   -454.453972
PE08   -860.194240 -17594.468111 -23792.410048   6100.063044
PE09  20567.453033   6942.830557  20112.938227   5884.106503
PE11  23773.457807  17598.628512   1181.474762   6565.961501
PE12  10086.714179  22037.390021 -16995.699798   5534.558888
PE13 -23729.018462 -17679.036421   -875.597459    405.281553
PE14   7838.588899 -14377.275791  16693.245526  -1205.728454
PE15 -10326.378958 -21976.550230  16941.110574    846.407181
PE18  -7389.974492  20472.509448 -24279.155488  -1317.081830
PE19 -21217.461337  17074.979109  11589.776736    114.155262
PE21 -16847.154397   7208.840891  23252.484661   -628.946890
PE24  12425.851769  15696.341789 -21798.422634   -552.886465
PE25  16844.613436  -7039.784061 -23286.442693   -519.110730
PE26 -22994.728155  -2519.247588 -18472.428708   2561.807934
PE27 -12675.409828 -15173.486982  22042.571378    104.541002
PE30   -540.017158 -28685.248512   7311.418926   3469.856635
PE31   1065.593747  28511.260397  -7866.306091   -475.228590
PE33  -9142.287561  13344.922539 -24783.046393   -463.014475
PE36  23174.327071   2987.661887  18171.823667    488.570014
PG01  19988.140726  11429.846957  13287.131063    812.542515
PG02 -13776.937629 -21958.286145   6462.418629   -535.329060
PG03  15717.788318    353.036181  21311.293188   -338.272128
PG04  25887.971786   1352.218187   5886.192594   -149.758484
PG05  -5404.718053 -19921.254144 -16766.467416    -24.486139
PG06   -914.617535 -20056.189946  17424.556386   -335.812019
PG07  15121.465625  -4844.467182 -21028.893358   -402.645344
PG08  21127.894004   6910.624880 -14725.848426    -53.042280
PG09  24670.926779  -8043.116735  -5770.253044   -306.140524
PG10 -11592.038062  23547.733549  -2924.469442   -490.727539
PG11  23636.308687  11666.400691   -953.989762   -124.564762
PG12 -14470.629022  -3816.311255  21696.382664     48.085565
PG13 -12899.608017 -13143.472494 -19312.720399     59.137528
PG15 -22331.909333  -5163.865571 -14073.250230   -193.918985
PG16   3842.817023  19174.346233 -17972.615413   -228.529574
PG17  11020.278449 -14227.138670  19956.436689    346.057013
PG18 -13814.567429   6596.776746 -21718.965913    313.594887
PG19   4346.922817 -14533.194043  21507.316831    -85.892464
PG20 -15008.663591  16463.965418 -14340.964188    526.240756
PG21  19002.538386  18784.117563   2161.388569     62.389417
PG22  13621.202971   9143.681058  21103.351206   -737.682678
PG23 -15760.480679  17416.401266 -12405.477970     92.607648
PG24 -21164.133281 -13077.150852   9607.830705      7.215228
PG25 -17052.908911   9822.010549  17470.380176     12.538958
PG26  -3589.092560  25213.395601  -7115.583467    302.547188
PG27  10331.456964  12864.566165 -21035.109984   -428.506414
PG28  12467.908358 -23531.356373   -419.481674    662.434945
PG29 -25995.440817   4239.103108  -3660.527058   -224.778412
PG30   8001.722517 -14608.127300 -20595.569717   -325.481531
PG31   2024.178548  21149.477138  15583.484898    -77.800835
PG32 -10641.540245  15157.265795  19065.040669    362.094859
PJ01 -29524.131729  30163.371114   5066.914833   -338.372894
PJ02 -26792.481618  26625.874368  23499.744191     -5.848801
PJ03 -31372.409766  16079.213875 -18508.949537     -2.439065
PJ07 -25392.895712  33660.117322     55.385197      0.021296
PR01 -21218.888085  12078.421359  -7410.863500     69.733522
PR02 -12586.123039  17441.883534  13695.602466    451.922059
PR03   3318.375976  11078.531621  22763.805483     24.562874
PR04  17001.441427  -1628.095438  18967.683124     59.548107
PR05  21312.781670 -13303.998775   4487.819065     60.058288
PR07  -3767.825116 -10751.553152 -22798.107278    -41.023429
PR08 -17044.614359   1566.171051 -18858.650681    -55.402912
PR09   1603.902758 -23573.650410  -9503.271561      4.683789
PR11 -11476.756712  -8409.867988  21179.505939    -42.672018
PR12  -9127.895871   9936.452531  21674.859191    175.467773
PR13  -1533.456387  23476.016242   9850.369285    -45.812951
PR14   6836.744959  23212.959353  -8072.600393     57.096202
PR15  11180.516767   9477.808602 -20850.298817    106.962163
PR16   8791.114594 -11085.802177 -21271.105455     -7.660651
PR17  14705.175539  13964.284864 -15431.479323    369.486681
PR18  23497.928375   9971.140748    535.047466     54.237387
PR19  19991.063195   1552.064930  15760.216847   -117.303442
PR20   3326.563358  -9865.765952  23294.399394   -425.217792
PR21 -15603.392137 -13942.017190  14617.190111   -162.142916
PR22 -23546.785943  -9533.486310  -1752.927423    -79.339964
PR23 -14904.786529   3411.213748 -20426.435598    341.218803
PR24  -2659.241380  10640.124699 -23010.532988     18.485197
EOF
